[{"OBJECT_NAME":"LUMELITE-4","OBJECT_ID":"2023-057B","EPOCH":"2026-03-09T12:04:50.773152","MEAN_MOTION":15.19877406,"ECCENTRICITY":0.00040087,"INCLINATION":9.9925,"RA_OF_ASC_NODE":94.5306,"ARG_OF_PERICENTER":70.4016,"MEAN_ANOMALY":289.6633,"EPHEMERIS_TYPE":0,"CLASSIFICATION_TYPE":"U","NORAD_CAT_ID":56309,"ELEMENT_SET_NO":999,"REV_AT_EPOCH":15885,"BSTAR":0.00062211184,"MEAN_MOTION_DOT":0.00014689,"MEAN_MOTION_DDOT":0},{"OBJECT_NAME":"OBJECT B","OBJECT_ID":"2024-024B","EPOCH":"2026-03-09T23:03:07.239744","MEAN_MOTION":15.20764865,"ECCENTRICITY":0.00185665,"INCLINATION":97.3159,"RA_OF_ASC_NODE":138.1992,"ARG_OF_PERICENTER":118.5867,"MEAN_ANOMALY":241.724,"EPHEMERIS_TYPE":0,"CLASSIFICATION_TYPE":"U","NORAD_CAT_ID":58918,"ELEMENT_SET_NO":999,"REV_AT_EPOCH":11626,"BSTAR":0.00044590474,"MEAN_MOTION_DOT":9.803e-5,"MEAN_MOTION_DDOT":0}]
